[{"OBJECT_NAME":"STARLINK-31120","OBJECT_ID":"2024-011P","EPOCH":"2026-03-09T05:19:27.537600","MEAN_MOTION":15.30163282,"ECCENTRICITY":8.97e-5,"INCLINATION":53.162,"RA_OF_ASC_NODE":16.1945,"ARG_OF_PERICENTER":88.4258,"MEAN_ANOMALY":271.6845,"EPHEMERIS_TYPE":0,"CLASSIFICATION_TYPE":"U","NORAD_CAT_ID":58778,"ELEMENT_SET_NO":999,"REV_AT_EPOCH":12019,"BSTAR":-0.00011781765,"MEAN_MOTION_DOT":-3.842e-5,"MEAN_MOTION_DDOT":0},{"OBJECT_NAME":"ELECTRON KICK STAGE R\/B","OBJECT_ID":"2022-147B","EPOCH":"2026-03-09T22:28:20.187264","MEAN_MOTION":15.28920172,"ECCENTRICITY":0.00095089,"INCLINATION":97.642,"RA_OF_ASC_NODE":85.1135,"ARG_OF_PERICENTER":110.4683,"MEAN_ANOMALY":249.7578,"EPHEMERIS_TYPE":0,"CLASSIFICATION_TYPE":"U","NORAD_CAT_ID":54228,"ELEMENT_SET_NO":999,"REV_AT_EPOCH":18390,"BSTAR":0.00083201931,"MEAN_MOTION_DOT":0.00023374,"MEAN_MOTION_DDOT":0}]
